STARLINK-2576           
1 48400U 21038AZ  21202.58334491 -.01090621  00000-0 -30567-1 0  9997
2 48400  53.0520  19.3594 0001115  85.5865 263.7334 15.38778537  3756
STARLINK-2571           
1 48401U 21038BA  21202.58334491 -.01084893  00000-0 -32326-1 0  9997
2 48401  53.0516  19.3608 0001408  76.8103 169.5784 15.36891784  3751
STARLINK-2560           
1 48402U 21038BB  21202.58334491 -.01091340  00000-0 -30410-1 0  9995
2 48402  53.0523  19.3618 0001117  76.4294 283.7487 15.38956575  3756
STARLINK-2561           
1 48403U 21038BC  21202.91667824 -.01082080  00000-0 -30715-1 0  9991
2 48403  53.0481  17.8229 0001185  63.7797 354.5687 15.38370886 12881
STARLINK-2593           
1 48404U 21038BD  21202.58334491 -.01092108  00000-0 -30061-1 0  9992
2 48404  53.0519  19.3932 0001102  79.9772 301.2589 15.39329490  3755
STARLINK-2570           
1 48405U 21038BE  21202.58334491 -.01092500  00000-0 -29891-1 0  9998
2 48405  53.0522  19.3507 0001105  77.2501 314.4093 15.39512768  3750
STARLINK-2568           
1 48406U 21038BF  21202.91667824 -.01081456  00000-0 -30138-1 0  9999
2 48406  53.0500  17.7855 0001366  52.7368  37.5571 15.38926987 12882
STARLINK-2595           
1 48407U 21038BG  21202.58334491 -.01084151  00000-0 -32809-1 0  9996
2 48407  53.0512  19.4014 0001423  76.5365 146.7927 15.36412031  3759
STARLINK-2592           
1 48408U 21038BH  21202.58334491 -.01084404  00000-0 -32615-1 0  9993
2 48408  53.0492  19.3677 0001469  67.5977 167.0561 15.36602285  3718
STARLINK-2596           
1 48409U 21038BJ  21202.91667824 -.01062276  00000-0 -62148-1 0  9997
2 48409  53.0536  21.3726 0001302  67.8690 358.6402 15.14137671 12830
STARLINK-2563           
1 48410U 21038BK  21202.58334491  .00012015  00000-0  89854-4 0  9992
2 48410  53.0505  17.4382 0002600  23.8188 163.9108 15.73209553  3753
STARLINK-2505           
1 48411U 21038BL  21202.91667824  .00056440  00000-0  40391-3 0  9991
2 48411  53.0498  15.7807 0002731  19.0117 258.3552 15.73190474 12902
STARLINK-2581           
1 48412U 21038BM  21202.91667824  .00082926  00000-0  59007-3 0  9994
2 48412  53.0499  15.7818 0002826  22.0586 255.8954 15.73168526 12906
YAOGAN-30 X             
1 48423U 21039A   21202.74665559  .00000200  00000-0  23135-4 0  9990
2 48423  35.0021  19.3965 0005148  35.0754 325.0272 14.89952138 11327
YAOGAN-30 Y             
1 48424U 21039B   21202.85830013  .00000190  00000-0  22150-4 0  9996
2 48424  35.0006  18.4078 0004784 175.1427 184.9341 14.89954036 11344
YAOGAN-30 Z             
1 48425U 21039C   21202.76893024  .00000183  00000-0  21401-4 0  9998
2 48425  35.0002  18.6283 0002659  62.6944 297.4027 14.89953638 11342
TIANQI-12               
1 48426U 21039D   21202.78420522  .00000176  00000-0  19919-4 0  9993
2 48426  35.0079  17.8585 0005000 198.5873 161.4670 14.91450810 11325
STARLINK-2461           
1 48428U 21040A   21202.91667824 -.00834357  00000-0 -36832-1 0  9998
2 48428  53.0469 221.8738 0001358  92.2772 166.6521 15.24028347 12840
STARLINK-2749           
1 48429U 21040B   21202.58334491 -.00010615  00000-0 -71268-4 0  9991
2 48429  53.0478 218.6168 0002403  16.4392  34.7490 15.73200962  3715
STARLINK-2729           
1 48430U 21040C   21202.91667824  .00058630  00000-0  41945-3 0  9994
2 48430  53.0476 216.9572 0002241  23.9962 116.7658 15.73183197 12909
STARLINK-2700           
1 48431U 21040D   21202.91667824  .00072847  00000-0  51959-3 0  9997
2 48431  53.0475 216.9555 0002320  22.5182 118.8795 15.73166180 12073
STARLINK-2680           
1 48432U 21040E   21202.91667824  .00059788  00000-0  42750-3 0  9996
2 48432  53.0476 216.9553 0002468  25.0418 116.9736 15.73187653 12236
STARLINK-2699           
1 48433U 21040F   21202.58334491  .00035022  00000-0  25308-3 0  9996
2 48433  53.0479 218.6116 0002383  17.7843  35.9136 15.73178699  3717
STARLINK-2692           
1 48434U 21040G   21202.58334491  .00043147  00000-0  31046-3 0  9990
2 48434  53.0478 218.6108 0002714  24.5955  29.7042 15.73178717  3758
STARLINK-2633           
1 48435U 21040H   21202.58334491  .00043727  00000-0  31445-3 0  9998
2 48435  53.0473 218.6068 0002607  20.0270  34.9124 15.73186460  3754
STARLINK-2639           
1 48436U 21040J   21202.91667824 -.01090935  00000-0 -26156-1 0  9992
2 48436  53.0489 218.5365 0001008  76.3949 309.9703 15.43446330 12055
STARLINK-2642           
1 48437U 21040K   21202.91667824 -.00830657  00000-0 -52026-1 0  9990
2 48437  53.0525 225.2073 0001224  83.4117 357.2307 15.11493731 12793
STARLINK-2640           
1 48438U 21040L   21202.58334491 -.01096113  00000-0 -25467-1 0  9996
2 48438  53.0487 220.1532 0001117 111.2743 232.2657 15.44379339  3693
STARLINK-2583           
1 48439U 21040M   21202.91667824 -.01092248  00000-0 -25907-1 0  9997
2 48439  53.0499 218.5024 0001022  82.3730 325.5827 15.43765761 12886
STARLINK-2682           
1 48440U 21040N   21202.91667824 -.00854050  00000-0 -21472-1 0  9998
2 48440  53.0448 218.7549 0001300  81.7789 180.6843 15.41834462 12041
STARLINK-2702           
1 48441U 21040P   21202.91667824 -.00853908  00000-0 -21361-1 0  9997
2 48441  53.0455 218.8089 0001269  90.7888 181.3656 15.41983488 12889
STARLINK-2644           
1 48442U 21040Q   21202.91667824 -.00853687  00000-0 -21249-1 0  9997
2 48442  53.0450 218.7538 0001247  83.6366 198.1805 15.42131521 12887
STARLINK-2663           
1 48443U 21040R   21202.91667824 -.00853656  00000-0 -21138-1 0  9991
2 48443  53.0454 218.7762 0001235  90.0020 200.6673 15.42285875 12881
STARLINK-2645           
1 48444U 21040S   21202.91667824 -.00853481  00000-0 -21036-1 0  9995
2 48444  53.0459 218.7927 0001211  95.8897 205.1207 15.42422931 12888
STARLINK-2634           
1 48445U 21040T   21202.91667824 -.00853428  00000-0 -20931-1 0  9990
2 48445  53.0458 218.8091 0001176  96.4814 214.0782 15.42569401 12888
STARLINK-2247           
1 48446U 21040U   21202.91667824 -.00853432  00000-0 -20827-1 0  9990
2 48446  53.0470 218.8280 0001171  94.2609 225.7841 15.42717022 12885
STARLINK-2269           
1 48447U 21040V   21202.91667824 -.00853527  00000-0 -20726-1 0  9994
2 48447  53.0470 218.8470 0001126  89.1689 240.3047 15.42864560 12159
STARLINK-2632           
1 48448U 21040W   21202.91667824 -.01074224  00000-0 -37323-1 0  9996
2 48448  53.0443 217.2819 0001284  91.0375 195.2396 15.32067428 12892
STARLINK-2655           
1 48449U 21040X   21202.91667824 -.00853624  00000-0 -20631-1 0  9999
2 48449  53.0463 218.8701 0001108  91.9331 247.3309 15.43003972 12886
STARLINK-2660           
1 48450U 21040Y   21202.91667824 -.00853773  00000-0 -20533-1 0  9997
2 48450  53.0460 218.8592 0001046  90.5126 258.1358 15.43150432 12889
STARLINK-2652           
1 48451U 21040Z   21202.91667824 -.00854220  00000-0 -20441-1 0  9994
2 48451  53.0468 218.8404 0001064  85.5649 272.3614 15.43299368 12889
STARLINK-2703           
1 48452U 21040AA  21202.91667824 -.00853954  00000-0 -20518-1 0  9993
2 48452  53.0461 218.8553 0001062  87.5847 264.0636 15.43178635 12883
STARLINK-2620           
1 48453U 21040AB  21202.91667824 -.00854529  00000-0 -20352-1 0  9999
2 48453  53.0461 218.8034 0001055  92.3119 275.2881 15.43439403 12885
STARLINK-2654           
1 48454U 21040AC  21202.58334491 -.00860762  00000-0 -19990-1 0  9996
2 48454  53.0460 220.3703 0001136  80.5324 242.6204 15.44196324  3704
STARLINK-2497           
1 48455U 21040AD  21202.58334491 -.01096020  00000-0 -26018-1 0  9995
2 48455  53.0477 220.1319 0001120  85.2360 234.9827 15.43749683  3693
STARLINK-2508           
1 48456U 21040AE  21202.58334491 -.01096072  00000-0 -25848-1 0  9993
2 48456  53.0489 220.1199 0001100  78.2874 251.0021 15.43943633  3690
STARLINK-2529           
1 48457U 21040AF  21202.48175448  .00450008  95601-4  97388-3 0  9993
2 48457  53.0448 217.2919 0002764 309.0460  51.0322 15.97849546 12853
STARLINK-2698           
1 48458U 21040AG  21202.91667824 -.00833487  00000-0 -38929-1 0  9993
2 48458  53.0451 221.8816 0001189  80.1490   7.0200 15.22135261 12109
STARLINK-2579           
1 48459U 21040AH  21202.58334491 -.01067636  00000-0 -54055-1 0  9992
2 48459  53.0473 223.0337 0001136  78.1562 293.9256 15.19647748  3667
STARLINK-2582           
1 48460U 21040AJ  21202.91667824 -.00833568  00000-0 -36801-1 0  9993
2 48460  53.0484 221.8759 0001309  87.4508 191.5155 15.24022640 12069
STARLINK-2693           
1 48461U 21040AK  21202.91667824 -.00835197  00000-0 -37536-1 0  9990
2 48461  53.0448 221.8293 0001377  88.3587 131.8318 15.23432293 12847
STARLINK-2683           
1 48462U 21040AL  21202.58334491  .00003286  00000-0  23940-3 0  9995
2 48462  53.0480 227.8819 0001490  70.8202 312.1768 15.06395516  3637
STARLINK-2689           
1 48463U 21040AM  21202.58334491  .00001528  00000-0  12150-3 0  9994
2 48463  53.0437 227.7643 0001358  89.3897 113.5009 15.06393608  3633
STARLINK-2686           
1 48464U 21040AN  21202.91667824  .00005196  00000-0  36752-3 0  9990
2 48464  53.0491 226.2689 0001348  87.6268 238.8162 15.06391682 12787
STARLINK-2681           
1 48465U 21040AP  21202.58334491  .00000026  00000-0  20623-4 0  9993
2 48465  53.0457 227.7651 0001371  86.5411 171.2242 15.06394575  3636
STARLINK-2687           
1 48466U 21040AQ  21202.91667824 -.00884495  00000-0 -58361-1 0  9999
2 48466  53.0482 226.1344 0001259  97.6652 237.7558 15.09785462 12788
STARLINK-2659           
1 48467U 21040AR  21202.58334491  .00001685  00000-0  13201-3 0  9990
2 48467  53.0436 227.7645 0001365  82.8783 114.8874 15.06393534  3630
STARLINK-2685           
1 48468U 21040AS  21202.58334491 -.00015817  00000-0 -10452-2 0  9999
2 48468  53.0483 227.7663 0001373  91.5827 206.1790 15.06403893  3630
STARLINK-2661           
1 48469U 21040AT  21202.58334491  .00001083  00000-0  91581-4 0  9992
2 48469  53.0441 227.7643 0001368  94.2836 123.4819 15.06393870  3633
